[{"OBJECT_NAME":"STARLINK-4508","OBJECT_ID":"2022-101AJ","EPOCH":"2026-03-09T23:40:37.600320","MEAN_MOTION":15.08830312,"ECCENTRICITY":0.0001271,"INCLINATION":53.2174,"RA_OF_ASC_NODE":62.785,"ARG_OF_PERICENTER":72.915,"MEAN_ANOMALY":287.1981,"EPHEMERIS_TYPE":0,"CLASSIFICATION_TYPE":"U","NORAD_CAT_ID":53559,"ELEMENT_SET_NO":999,"REV_AT_EPOCH":19635,"BSTAR":4.2527157e-5,"MEAN_MOTION_DOT":3.89e-6,"MEAN_MOTION_DDOT":0},{"OBJECT_NAME":"AAC-HSI-SAT1","OBJECT_ID":"2023-054AZ","EPOCH":"2026-03-09T21:58:39.446112","MEAN_MOTION":15.121108,"ECCENTRICITY":0.00115868,"INCLINATION":97.3836,"RA_OF_ASC_NODE":308.6521,"ARG_OF_PERICENTER":105.3166,"MEAN_ANOMALY":254.9346,"EPHEMERIS_TYPE":0,"CLASSIFICATION_TYPE":"U","NORAD_CAT_ID":56225,"ELEMENT_SET_NO":999,"REV_AT_EPOCH":16036,"BSTAR":0.00016323049,"MEAN_MOTION_DOT":2.752e-5,"MEAN_MOTION_DDOT":0}]
